OBJECT_NAME,OBJECT_ID,EPOCH,MEAN_MOTION,ECCENTRICITY,INCLINATION,RA_OF_ASC_NODE,ARG_OF_PERICENTER,MEAN_ANOMALY,EPHEMERIS_TYPE,CLASSIFICATION_TYPE,NORAD_CAT_ID,ELEMENT_SET_NO,REV_AT_EPOCH,BSTAR,MEAN_MOTION_DOT,MEAN_MOTION_DDOT
EUTELSAT HOTBIRD 13C,2008-065A,2026-07-20T06:02:42.643680,1.00269418,.00035807,3.0333,78.8001,40.9066,218.6599,0,U,33459,999,4767,0,-.287E-5,0
EXPRESS-AM44,2009-007A,2026-07-20T06:13:56.567136,1.00271424,.00037487,3.5468,77.9941,32.0368,270.4591,0,U,33595,999,5261,0,-.94E-6,0
NSS-9,2009-008A,2026-07-20T02:01:20.174592,1.00270042,.00022948,1.3448,82.3386,22.0106,46.9136,0,U,33749,999,6385,0,.68E-6,0
TELSTAR 11N,2009-009A,2026-07-20T06:06:27.285408,1.00272067,.00023956,0.0124,24.0325,85.8157,242.2403,0,U,34111,999,4657,0,-.253E-5,0
WGS F2 (USA 204),2009-017A,2026-07-20T04:50:52.204704,1.00273278,.00002941,0.0166,61.2993,86.6471,280.2437,0,U,34713,999,4594,0,.66E-6,0
SES-7 (PROTOSTAR 2),2009-027A,2026-07-20T06:48:00.799776,1.00269706,.00003018,0.0205,63.1919,145.2548,299.8394,0,U,34941,999,6296,0,-.346E-5,0
MEASAT-3A,2009-032A,2026-07-20T07:29:38.354208,1.00272362,.00028593,0.0236,353.0714,115.2697,102.1488,0,U,35362,999,836,0,-.112E-5,0
EWS-G3 (GOES 14),2009-033A,2026-07-20T06:51:52.928928,1.00095947,.00021326,1.7731,82.6345,38.8071,41.4613,0,U,35491,999,692,0,-.362E-5,0
FM-5,2009-034A,2026-07-20T05:53:43.266624,1.00270279,.00007801,0.0420,249.2326,130.1727,280.8727,0,U,35493,999,4697,0,-.202E-5,0
TERRESTAR-1,2009-035A,2026-07-19T14:38:38.663808,1.00265063,.00022459,5.1986,48.7637,59.9755,297.3246,0,U,35496,999,6245,0,-.62E-6,0
ASIASAT 5,2009-042A,2026-07-20T03:20:08.579616,1.00271690,.00014219,0.0099,35.1245,57.8904,355.4703,0,U,35696,999,6203,0,-.31E-5,0
JCSAT-12 (JCSAT-RA),2009-044A,2026-07-20T06:54:37.666080,1.00270326,.00010363,0.0442,262.7998,282.2629,348.7001,0,U,35755,999,6194,0,-.33E-5,0
OPTUS D3,2009-044B,2026-07-20T03:36:22.024224,1.00271086,.00033212,0.8946,268.2055,209.5737,30.3659,0,U,35756,999,6189,0,-.148E-5,0
NIMIQ 5,2009-050A,2026-07-20T06:01:23.730240,1.00272202,.00028642,0.0375,235.1729,236.0490,204.4524,0,U,35873,999,6167,0,-.259E-5,0
AMAZONAS 2,2009-054A,2026-07-20T06:02:20.945184,1.00272895,.00033697,1.8991,82.6272,31.6387,202.3533,0,U,35942,999,6151,0,-.262E-5,0
COMSATBW-1,2009-054B,2026-07-20T03:09:47.073312,1.00271636,.0002859,0.0651,157.5410,321.0920,289.7220,0,U,35943,999,6163,0,.22E-6,0
NSS-12,2009-058A,2026-07-20T04:50:44.717280,1.00272867,.00049176,0.0793,269.3415,172.7450,345.5653,0,U,36032,999,6124,0,.69E-6,0
THOR 6,2009-058B,2026-07-20T06:16:56.280000,1.00272466,.00017996,0.0131,112.6121,9.7292,269.0792,0,U,36033,999,6133,0,-.12E-6,0
INTELSAT 14 (IS-14),2009-064A,2026-07-20T07:08:41.483904,1.00272118,.00025456,0.0164,48.3096,73.2667,238.6632,0,U,36097,999,6093,0,-.275E-5,0
EUTELSAT 36B,2009-065A,2026-07-20T06:31:24.892032,1.00271244,.0005692,0.5723,81.3673,34.0424,330.9722,0,U,36101,999,6104,0,.11E-5,0
INTELSAT 15 (IS-15),2009-067A,2026-07-20T03:14:38.535072,1.00272438,.00022717,0.0054,15.6665,101.4132,314.6391,0,U,36106,999,4155,0,-.187E-5,0
WGS F3 (USA 211),2009-068A,2026-07-20T07:50:04.541280,1.00269129,.00008131,0.2944,85.6739,73.1889,126.7464,0,U,36108,999,4692,0,.63E-6,0
DIRECTV 12,2009-075A,2026-07-20T05:45:49.442112,1.00272539,.00002647,0.0414,227.9653,338.3959,75.3850,0,U,36131,999,4688,0,-.105E-5,0
BEIDOU-2 G1,2010-001A,2026-07-19T22:23:57.216768,1.00270519,.00018752,4.3689,60.3000,292.2016,61.6544,0,U,36287,999,6049,0,-.285E-5,0
SDO,2010-005A,2026-07-19T05:47:12.515712,1.00277469,.00017212,34.7163,85.8540,43.5863,152.2121,0,U,36395,999,6038,0,-.94E-6,0
INTELSAT 16 (IS-16),2010-006A,2026-07-20T06:57:03.734784,1.00271179,.00026417,0.0220,307.9509,190.3938,187.7741,0,U,36397,999,5998,0,-.246E-5,0
EWS-G2 (GOES 15),2010-008A,2026-07-20T03:09:54.560736,1.00269215,.00054265,1.3667,82.4078,53.9300,272.3057,0,U,36411,999,5996,0,.2E-6,0
ECHOSTAR 14,2010-010A,2026-07-20T06:22:31.848096,1.00272888,.00020438,0.0106,14.4981,88.7520,171.5116,0,U,36499,999,4688,0,-.2E-7,0
SES-1,2010-016A,2026-07-20T06:29:12.096960,1.00272101,.00025913,0.0517,271.0912,201.4772,181.7746,0,U,36516,999,5936,0,-.116E-5,0
ASTRA 3B,2010-021A,2026-07-20T06:23:48.122016,1.00272474,.00042755,1.5518,83.1448,26.4564,307.8836,0,U,36581,999,5919,0,.134E-5,0
COMSATBW-2,2010-021B,2026-07-20T06:20:55.896576,1.00269417,.00023192,0.0408,157.8185,328.5977,280.0608,0,U,36582,999,5928,0,.86E-6,0
BEIDOU-2 G3,2010-024A,2026-07-20T01:31:52.999968,1.00273393,.00072085,4.5922,61.3677,357.5072,341.4889,0,U,36590,999,5909,0,-.14E-5,0
