EUTELSAT HOTBIRD 13C    
1 33459U 08065A   26201.25188245 -.00000287  00000+0  00000+0 0  9995
2 33459   3.0333  78.8001 0003580  40.9066 218.6599  1.00269418 47678
EXPRESS-AM44            
1 33595U 09007A   26201.25968249 -.00000094  00000+0  00000+0 0  9999
2 33595   3.5468  77.9941 0003748  32.0368 270.4591  1.00271424 52617
NSS-9                   
1 33749U 09008A   26201.08426128  .00000068  00000+0  00000+0 0  9997
2 33749   1.3448  82.3386 0002294  22.0106  46.9136  1.00270042 63853
TELSTAR 11N             
1 34111U 09009A   26201.25448247 -.00000253  00000+0  00000+0 0  9994
2 34111   0.0124  24.0325 0002395  85.8157 242.2403  1.00272067 46572
WGS F2 (USA 204)        
1 34713U 09017A   26201.20199311  .00000066  00000+0  00000+0 0  9992
2 34713   0.0166  61.2993 0000294  86.6471 280.2437  1.00273278 45948
SES-7 (PROTOSTAR 2)     
1 34941U 09027A   26201.28334259 -.00000346  00000+0  00000+0 0  9998
2 34941   0.0205  63.1919 0000301 145.2548 299.8394  1.00269706 62960
MEASAT-3A               
1 35362U 09032A   26201.31224947 -.00000112  00000+0  00000+0 0  9999
2 35362   0.0236 353.0714 0002859 115.2697 102.1488  1.00272362  8364
EWS-G3 (GOES 14)        
1 35491U 09033A   26201.28602927 -.00000362  00000+0  00000+0 0  9994
2 35491   1.7731  82.6345 0002132  38.8071  41.4613  1.00095947  6927
FM-5                    
1 35493U 09034A   26201.24563966 -.00000202  00000+0  00000+0 0  9995
2 35493   0.0420 249.2326 0000780 130.1727 280.8727  1.00270279 46974
TERRESTAR-1             
1 35496U 09035A   26200.61016972 -.00000062  00000+0  00000+0 0  9993
2 35496   5.1986  48.7637 0002245  59.9755 297.3246  1.00265063 62459
ASIASAT 5               
1 35696U 09042A   26201.13898819 -.00000310  00000+0  00000+0 0  9995
2 35696   0.0099  35.1245 0001421  57.8904 355.4703  1.00271690 62034
JCSAT-12 (JCSAT-RA)     
1 35755U 09044A   26201.28793595 -.00000330  00000+0  00000+0 0  9996
2 35755   0.0442 262.7998 0001036 282.2629 348.7001  1.00270326 61945
OPTUS D3                
1 35756U 09044B   26201.15025491 -.00000148  00000+0  00000+0 0  9993
2 35756   0.8946 268.2055 0003321 209.5737  30.3659  1.00271086 61890
NIMIQ 5                 
1 35873U 09050A   26201.25096910 -.00000259  00000+0  00000+0 0  9998
2 35873   0.0375 235.1729 0002864 236.0490 204.4524  1.00272202 61673
AMAZONAS 2              
1 35942U 09054A   26201.25163131 -.00000262  00000+0  00000+0 0  9993
2 35942   1.8991  82.6272 0003369  31.6387 202.3533  1.00272895 61514
COMSATBW-1              
1 35943U 09054B   26201.13179483  .00000022  00000+0  00000+0 0  9991
2 35943   0.0651 157.5410 0002859 321.0920 289.7220  1.00271636 61634
NSS-12                  
1 36032U 09058A   26201.20190645  .00000069  00000+0  00000+0 0  9997
2 36032   0.0793 269.3415 0004917 172.7450 345.5653  1.00272867 61249
THOR 6                  
1 36033U 09058B   26201.26176250 -.00000012  00000+0  00000+0 0  9999
2 36033   0.0131 112.6121 0001799   9.7292 269.0792  1.00272466 61337
INTELSAT 14 (IS-14)     
1 36097U 09064A   26201.29770236 -.00000275  00000+0  00000+0 0  9994
2 36097   0.0164  48.3096 0002545  73.2667 238.6632  1.00272118 60935
EUTELSAT 36B            
1 36101U 09065A   26201.27181588  .00000110  00000+0  00000+0 0  9992
2 36101   0.5723  81.3673 0005692  34.0424 330.9722  1.00271244 61045
INTELSAT 15 (IS-15)     
1 36106U 09067A   26201.13516823 -.00000187  00000+0  00000+0 0  9993
2 36106   0.0054  15.6665 0002271 101.4132 314.6391  1.00272438 41559
WGS F3 (USA 211)        
1 36108U 09068A   26201.32644145  .00000063  00000+0  00000+0 0  9998
2 36108   0.2944  85.6739 0000813  73.1889 126.7464  1.00269129 46926
DIRECTV 12              
1 36131U 09075A   26201.24015558 -.00000105  00000+0  00000+0 0  9991
2 36131   0.0414 227.9653 0000264 338.3959  75.3850  1.00272539 46884
BEIDOU-2 G1             
1 36287U 10001A   26200.93330112 -.00000285  00000+0  00000+0 0  9994
2 36287   4.3689  60.3000 0001875 292.2016  61.6544  1.00270519 60490
SDO                     
1 36395U 10005A   26200.24111708 -.00000094  00000+0  00000+0 0  9998
2 36395  34.7163  85.8540 0001721  43.5863 152.2121  1.00277469 60389
INTELSAT 16 (IS-16)     
1 36397U 10006A   26201.28962656 -.00000246  00000+0  00000+0 0  9991
2 36397   0.0220 307.9509 0002641 190.3938 187.7741  1.00271179 59987
EWS-G2 (GOES 15)        
1 36411U 10008A   26201.13188149  .00000020  00000+0  00000+0 0  9990
2 36411   1.3667  82.4078 0005426  53.9300 272.3057  1.00269215 59967
ECHOSTAR 14             
1 36499U 10010A   26201.26564639 -.00000002  00000+0  00000+0 0  9996
2 36499   0.0106  14.4981 0002043  88.7520 171.5116  1.00272888 46880
SES-1                   
1 36516U 10016A   26201.27027890 -.00000116  00000+0  00000+0 0  9992
2 36516   0.0517 271.0912 0002591 201.4772 181.7746  1.00272101 59369
ASTRA 3B                
1 36581U 10021A   26201.26652919  .00000134  00000+0  00000+0 0  9994
2 36581   1.5518  83.1448 0004275  26.4564 307.8836  1.00272474 59194
COMSATBW-2              
1 36582U 10021B   26201.26453584  .00000086  00000+0  00000+0 0  9998
2 36582   0.0408 157.8185 0002319 328.5977 280.0608  1.00269417 59287
BEIDOU-2 G3             
1 36590U 10024A   26201.06380787 -.00000140  00000+0  00000+0 0  9994
2 36590   4.5922  61.3677 0007208 357.5072 341.4889  1.00273393 59091
